STARLINK-30122          
1 56688U 23067A   23167.58334491  .00060818  00000+0  17281-2 0  9990
2 56688  43.0017 299.7933 0001105 271.4834  51.7072 15.35341653  1300
STARLINK-30129          
1 56689U 23067B   23167.58334491 -.02112452  00000+0 -91836-1 0  9994
2 56689  42.9994 299.8818 0000760 281.1260   4.8832 15.25219986  1308
STARLINK-30124          
1 56690U 23067C   23167.58334491 -.02119155  00000+0 -90329-1 0  9999
2 56690  42.9994 299.8506 0000689 255.5149  43.5882 15.25880933  1306
STARLINK-30087          
1 56691U 23067D   23167.58334491  .00001539  00000+0  94922-4 0  9998
2 56691  43.0005 300.5426 0001809 233.8760 137.1049 15.14264337  1303
STARLINK-30036          
1 56692U 23067E   23167.83334491  .00058028  00000+0  31045-2 0  9997
2 56692  43.0008 299.1144 0001683 246.9266  67.4967 15.14254488  4766
STARLINK-30067          
1 56693U 23067F   23167.83334491  .00038276  00000+0  20579-2 0  9991
2 56693  43.0010 299.0233 0001732 233.6753 118.6179 15.14248724  4767
STARLINK-30126          
1 56694U 23067G   23167.83334491  .00076910  00000+0  41025-2 0  9998
2 56694  43.0010 299.0676 0002315 288.8531  44.7026 15.14231033  4768
STARLINK-30121          
1 56695U 23067H   23167.58334491  .00014885  00000+0  68554-3 0  9991
2 56695  43.0008 300.3471 0001678 269.7961 182.9055 15.20111543  1305
STARLINK-30118          
1 56696U 23067J   23167.62915329  .00393438  71442-4  84018-3 0  9992
2 56696  42.9997 292.9169 0008782 359.7666   0.3206 15.97742993  4538
STARLINK-30130          
1 56697U 23067K   23167.58334491 -.02111706  00000+0 -10055+0 0  9996
2 56697  42.9996 300.0091 0000934 265.6898 327.0051 15.22189793  1306
STARLINK-30068          
1 56698U 23067L   23167.58334491 -.01648635  00000+0 -15683-1 0  9996
2 56698  43.0000 296.7478 0001166 232.4042 252.0354 15.68995010  1306
STARLINK-30127          
1 56699U 23067M   23167.83334491 -.01583569  00000+0 -90199-1 0  9994
2 56699  43.0008 298.9342 0001121 279.9835 109.3531 15.15600818  4761
STARLINK-30053          
1 56700U 23067N   23167.58334491 -.02122415  00000+0 -11573+0 0  9996
2 56700  43.0005 300.2797 0000366 263.1699 217.2302 15.17603131  1300
STARLINK-30125          
1 56701U 23067P   23167.58334491 -.02118416  00000+0 -11331+0 0  9995
2 56701  43.0001 300.2465 0000541 280.7415 216.7268 15.18256492  1305
STARLINK-30117          
1 56702U 23067Q   23167.83334491 -.01184191  00000+0 -23236-1 0  9995
2 56702  43.0001 297.9080 0001864 310.0498 145.4584 15.49203217  4772
STARLINK-30132          
1 56703U 23067R   23167.58334491 -.02112209  00000+0 -10870+0 0  9998
2 56703  42.9999 300.1604 0000631 285.5941 244.9847 15.19564858  1307
STARLINK-30066          
1 56704U 23067S   23167.83334491 -.02056514  00000+0 -97235-1 0  9995
2 56704  42.9997 298.5379 0000303 243.8534 310.0935 15.22331464  4772
STARLINK-30080          
1 56705U 23067T   23167.58334491 -.00611765  00000+0 -89237-2 0  9995
2 56705  43.0004 297.6040 0000752 255.7341 240.7432 15.56922714  1303
STARLINK-30079          
1 56706U 23067U   23167.58334491 -.02112672  00000+0 -10460+0 0  9990
2 56706  42.9997 300.0830 0000736 266.8090 295.5115 15.20877811  1309
STARLINK-30070          
1 56707U 23067V   23167.58334491 -.02111390  00000+0 -10658+0 0  9996
2 56707  42.9998 300.1205 0000563 278.1943 268.4265 15.20220663  1301
STARLINK-30071          
1 56708U 23067W   23167.58334491 -.02113895  00000+0 -98702-1 0  9997
2 56708  42.9995 299.9746 0001411 240.1324   7.2368 15.22846214  1300
STARLINK-30085          
1 56709U 23067X   23167.58334491 -.02110766  00000+0 -10249+0 0  9990
2 56709  42.9996 300.0454 0000558 273.2799 304.3987 15.21533150  1305
ONEWEB-0561             
1 56710U 23068A   23167.83334491 -.01113129  00000+0 -43690+0 0  9992
2 56710  87.0692 129.7997 0014165 121.3803  44.4795 14.32497031  4834
ONEWEB-0668             
1 56711U 23068B   23167.58334491 -.00040724  00000+0 -56615-2 0  9998
2 56711  86.7233 129.1158 0017465 123.4645 202.9484 14.78104975  1305
ONEWEB-0676             
1 56712U 23068C   23167.83334491  .00051332  00000+0  70587-2 0  9996
2 56712  86.7189 129.0044 0017424 124.5426  70.0831 14.77952506  4889
ONEWEB-0677             
1 56713U 23068D   23167.83334491 -.01026415  00000+0 -29710+0 0  9993
2 56713  86.9244 129.6242 0012432 118.4788 304.6183 14.47911740  4830
ONEWEB-0678             
1 56714U 23068E   23167.40624705  .00001917  00000+0  26656-3 0  9994
2 56714  86.7196 129.2005 0013131 123.7497 236.4976 14.77256865  4128
ONEWEB-0679             
1 56715U 23068F   23167.58334491 -.00040613  00000+0 -56415-2 0  9997
2 56715  86.7228 129.1138 0017621 123.9361 208.1188 14.78137175  1302
ONEWEB-0680             
1 56716U 23068G   23167.58334491 -.00041164  00000+0 -57718-2 0  9997
2 56716  86.7209 129.1101 0016628 125.6735 171.6139 14.77755345  1306
ONEWEB-0681             
1 56717U 23068H   23167.58334491 -.00043113  00000+0 -60988-2 0  9997
2 56717  86.7214 129.1256 0014598 126.7377 125.6416 14.77412151  1304
ONEWEB-0682             
1 56718U 23068J   23167.58334491 -.00043608  00000+0 -62147-2 0  9996
2 56718  86.7216 129.1291 0014054 126.5139 116.4122 14.77105105  1307
ONEWEB-0683             
1 56719U 23068K   23167.58334491 -.00043992  00000+0 -62707-2 0  9995
2 56719  86.7212 129.1308 0013955 125.5434 109.2708 14.77099659  1305
ONEWEB-0684             
1 56720U 23068L   23167.40608041  .00001950  00000+0  27241-3 0  9994
2 56720  86.7218 129.2019 0013131 123.7777 236.4696 14.77088340  4126
ONEWEB-0686             
1 56721U 23068M   23167.58334491 -.00040672  00000+0 -56886-2 0  9991
2 56721  86.7204 129.1039 0017242 124.6599 191.2310 14.77850742  1303
ONEWEB-0694             
1 56722U 23068N   23167.58334491 -.00040777  00000+0 -57082-2 0  9997
2 56722  86.7243 129.1211 0017050 124.4728 185.5855 14.77817653  1302
ONEWEB-0696             
1 56723U 23068P   23167.58334491 -.00044430  00000+0 -63507-2 0  9997
2 56723  86.7206 129.1328 0013583 124.3474  99.9655 14.76987681  1309
ONEWEB-0703             
1 56724U 23068Q   23167.58334491 -.00044182  00000+0 -63006-2 0  9996
2 56724  86.7207 129.1281 0013724 125.2277 105.2407 14.77084154  1307
ONEWEB-0721             
1 56725U 23068R   23167.38948058  .00005920  00000+0  72963-3 0  9993
2 56725  86.6771 129.1659 0013110 123.4166 236.8313 14.82706142  4122
IRIDIUM 181             
1 56726U 23068S   23167.42471812  .00002180  00000+0  28298-3 0  9995
2 56726  86.6766 129.1845 0003049 107.1163 253.0393 14.80299279  4125
IRIDIUM 177             
1 56727U 23068T   23167.41916200  .00001515  00000+0  19573-3 0  9997
2 56727  86.6755 129.1778 0002665 102.3299 257.8221 14.80267346  4121
IRIDIUM 174             
1 56728U 23068U   23167.41373754  .00000884  00000+0  11282-3 0  9996
2 56728  86.6810 129.1935 0002679 100.9533 259.1990 14.80265981  4120
IRIDIUM 178             
1 56729U 23068V   23167.40835862  .00001611  00000+0  20845-3 0  9993
2 56729  86.6754 129.1711 0002500 105.1870 254.9628 14.80267157  4122
IRIDIUM 179             
1 56730U 23068W   23167.40260675  .00001627  00000+0  21068-3 0  9994
2 56730  86.6795 129.1815 0002431 106.2013 253.9476 14.80244493  4126
2023-069A               
1 56731U 23069A   23167.55467052  .00009241  00000+0  30940-3 0  9999
2 56731  41.0043 207.1383 0032139 320.1808  39.6654 15.30464228  4013
2023-069B               
1 56732U 23069B   23167.54493253  .00018643  00000+0  60066-3 0  9999
2 56732  41.0036 207.0620 0030156 320.3243  39.5372 15.31308317  4014
2023-069C               
1 56733U 23069C   23167.54420478  .00008377  00000+0  27617-3 0  9997
2 56733  41.0038 207.0566 0029597 320.4803  39.3859 15.31125795  4011
CZ-2C R/B               
1 56734U 23069D   23167.53508440  .00026959  00000+0  49018-3 0  9998
2 56734  41.1962 203.8892 0054027 227.8456 131.7776 15.47276533  4058
CZ-2C DEB               
1 56735U 23069E   23167.47205479  .00061056  00000+0  40401-2 0  9991
2 56735  41.1415 216.8701 0208585 301.4730  56.5844 14.90411754  3905
CZ-2C DEB               
1 56736U 23069F   23167.50642209  .00102760  00000+0  39097-2 0  9999
2 56736  40.8531 210.2834 0116625 351.1817   8.6949 15.19493019  3985
CZ-2C DEB               
1 56737U 23069G   23167.18078830  .00118843  00000+0  40332-2 0  9990
2 56737  41.0949 211.2994 0111205 355.8837   4.1060 15.23573997  3908
2023-069H               
1 56738U 23069H   23167.57660265  .00055532  00000+0  35942-2 0  9999
2 56738  40.9038 215.9601 0201442 301.8613  56.2728 14.92154229  3927
PROGRESS-MS 23          
1 56740U 23071A   23167.49074611 -.00152675  00000+0 -27135-2 0  9993
2 56740  51.6394 331.9694 0004893  61.3577  36.0003 15.50048895401686
2023-072A               
1 56743U 23072A   23167.61000734  .00005291  00000+0  35485-3 0  9993
2 56743  97.5416 354.4909 0007859 215.2905 144.7804 15.07247487  3349
SNIPE 4                 
1 56744U 23072B   23167.54270378  .00007491  00000+0  49924-3 0  9996
2 56744  97.5501 354.4520 0007885 216.6626 143.4063 15.07344416  3330
SNIPE 2                 
1 56745U 23072C   23167.67352573  .00008296  00000+0  55033-3 0  9991
2 56745  97.5511 354.5870 0008159 219.9045 140.1584 15.07481508  3355
2023-072D               
1 56746U 23072D   23167.60489635  .00009255  00000+0  61055-3 0  9992
2 56746  97.5513 354.5248 0008442 223.8837 136.1721 15.07651384  3343
2023-072E               
1 56747U 23072E   23167.60280639  .00007411  00000+0  48811-3 0  9993
2 56747  97.5516 354.5275 0008886 226.7850 133.2636 15.07776771  3347
2023-072F               
1 56748U 23072F   23167.60223622  .00006656  00000+0  43857-3 0  9998
2 56748  97.5310 354.4706 0009131 227.4571 132.5887 15.07797568  3347
2023-072G               
1 56749U 23072G   23167.60005584  .00008013  00000+0  52467-3 0  9990
2 56749  97.5319 354.4754 0009499 230.4531 129.5858 15.07965137  3340
